NORAD_CAT_ID,OBJECT_NAME,OBJECT_TYPE,EPOCH,MEAN_MOTION,ECCENTRICITY,INCLINATION,RA_OF_ASC_NODE,ARG_OF_PERICENTER,MEAN_ANOMALY,BSTAR,MEAN_MOTION_DOT,MEAN_MOTION_DDOT,TLE_LINE0,TLE_LINE1,TLE_LINE2,SEMIMAJOR_AXIS,PERIOD,APOGEE,PERIGEE,DECAYED
56493.0,STARLINK-5841,PAYLOAD,2023-08-11 20:47:32,15.69915816,0.000286,70.0001,343.4063,269.0002,91.0866,3.2631e-06,1.8e-06,0.0,0 STARLINK-5841,1 56493U 23064AX  23223.86634807  .00000180  00000-0  32631-5 0  9995,2 56493  70.0001 343.4063 0002860 269.0002  91.0866 15.69915816 14999,6737.275,91.725,361.067,357.213,0.0
56493.0,STARLINK-5841,PAYLOAD,2023-08-12 10:33:17,15.69928834,0.000337,70.0001,341.7956,270.3262,89.7547,8.7597e-06,8.41e-06,0.0,0 STARLINK-5841,1 56493U 23064AX  23224.43979066  .00000841  00000-0  87597-5 0  9993,2 56493  70.0001 341.7956 0003370 270.3262  89.7547 15.69928834 15086,6737.238,91.724,361.373,356.832,0.0
56493.0,STARLINK-5841,PAYLOAD,2023-08-13 07:57:50,15.69921888,0.0003238,69.9996,339.2875,269.4763,90.6062,1.0235e-05,1.018e-05,0.0,0 STARLINK-5841,1 56493U 23064AX  23225.33182930  .00001018  00000-0  10235-4 0  9990,2 56493  69.9996 339.2875 0003238 269.4763  90.6062 15.69921888 15227,6737.257,91.724,361.304,356.941,0.0
56493.0,STARLINK-5841,PAYLOAD,2023-08-13 17:08:21,15.69910845,0.0003367,70.0006,338.2124,264.5411,95.5401,-2.0447e-06,-4.58e-06,0.0,0 STARLINK-5841,1 56493U 23064AX  23225.71413510 -.00000458  00000-0 -20447-5 0  9999,2 56493  70.0006 338.2124 0003367 264.5411  95.5401 15.69910845 15285,6737.289,91.725,361.423,356.886,0.0
56493.0,STARLINK-5841,PAYLOAD,2023-08-13 20:11:51,15.69919586,0.000312,70.0001,337.8536,274.218,85.8659,1.0572e-05,1.058e-05,0.0,0 STARLINK-5841,1 56493U 23064AX  23225.84156539  .00001058  00000-0  10572-4 0  9990,2 56493  70.0001 337.8536 0003120 274.2180  85.8659 15.69919586 15301,6737.264,91.724,361.231,357.027,0.0
56493.0,STARLINK-5841,PAYLOAD,2023-08-14 09:57:37,15.69927673,0.0003239,69.9972,336.2422,273.8832,86.1994,1.2588e-05,1.301e-05,0.0,0 STARLINK-5841,1 56493U 23064AX  23226.41501243  .00001301  00000-0  12588-4 0  9990,2 56493  69.9972 336.2422 0003239 273.8832  86.1994 15.69927673 15393,6737.241,91.724,361.288,356.924,0.0
56493.0,STARLINK-5841,PAYLOAD,2023-08-15 10:25:38,15.69937816,0.0003388,69.9974,333.3756,267.0092,93.0716,-1.4548e-05,-1.963e-05,0.0,0 STARLINK-5841,1 56493U 23064AX  23227.43447805 -.00001963  00000-0 -14548-4 0  9990,2 56493  69.9974 333.3756 0003388 267.0092  93.0716 15.69937816 15558,6737.212,91.723,361.359,356.794,0.0
56493.0,STARLINK-5841,PAYLOAD,2023-08-16 00:11:25,15.69924737,0.0003295,69.9975,331.7633,267.4084,92.6734,1.4996e-05,1.591e-05,0.0,0 STARLINK-5841,1 56493U 23064AX  23228.00793135  .00001591  00000-0  14996-4 0  9996,2 56493  69.9975 331.7633 0003295 267.4084  92.6734 15.69924737 15640,6737.249,91.724,361.334,356.894,0.0
56493.0,STARLINK-5841,PAYLOAD,2023-08-17 09:49:57,15.69929535,0.0003246,69.9979,327.8223,267.9102,92.1722,1.476e-05,1.563e-05,0.0,0 STARLINK-5841,1 56493U 23064AX  23229.40969538  .00001563  00000-0  14760-4 0  9991,2 56493  69.9979 327.8223 0003246 267.9102  92.1722 15.69929535 15864,6737.236,91.724,361.288,356.914,0.0
56493.0,STARLINK-5841,PAYLOAD,2023-08-17 23:35:44,15.69917558,0.0002761,69.9993,326.2105,264.2348,95.8533,-2.3355e-06,-4.93e-06,0.0,0 STARLINK-5841,1 56493U 23064AX  23229.98315937 -.00000493  00000-0 -23355-5 0  9996,2 56493  69.9993 326.2105 0002761 264.2348  95.8533 15.69917558 15957,6737.27,91.725,360.995,357.275,0.0
56493.0,STARLINK-5841,PAYLOAD,2023-08-18 08:46:15,15.69921618,0.0003414,69.9972,325.1347,266.0362,94.0443,9.7264e-06,9.57e-06,0.0,0 STARLINK-5841,1 56493U 23064AX  23230.36545363  .00000957  00000-0  97264-5 0  9991,2 56493  69.9972 325.1347 0003414 266.0362  94.0443 15.69921618 16013,6737.258,91.724,361.423,356.823,0.0
56493.0,STARLINK-5841,PAYLOAD,2023-08-19 00:03:45,15.69935428,0.0003016,69.9962,323.3423,266.2157,93.8694,1.7427e-05,1.884e-05,0.0,0 STARLINK-5841,1 56493U 23064AX  23231.00261092  .00001884  00000-0  17427-4 0  9999,2 56493  69.9962 323.3423 0003016 266.2157  93.8694 15.69935428 16119,6737.219,91.724,361.116,357.052,0.0
56493.0,STARLINK-5841,PAYLOAD,2023-08-19 09:14:17,15.69915904,0.0003268,69.9996,322.2696,271.1141,88.968,-1.8088e-05,-2.386e-05,0.0,0 STARLINK-5841,1 56493U 23064AX  23231.38492075 -.00002386  00000-0 -18088-4 0  9991,2 56493  69.9996 322.2696 0003268 271.1141  88.9680 15.69915904 16176,6737.275,91.725,361.341,356.938,0.0
56493.0,STARLINK-5841,PAYLOAD,2023-08-20 09:42:19,15.69925496,0.0003458,69.9989,319.4019,277.5415,82.5388,1.3114e-05,1.364e-05,0.0,0 STARLINK-5841,1 56493U 23064AX  23232.40438713  .00001364  00000-0  13114-4 0  9992,2 56493  69.9989 319.4019 0003458 277.5415  82.5388 15.69925496 16330,6737.247,91.724,361.442,356.782,0.0
56493.0,STARLINK-5841,PAYLOAD,2023-08-21 08:38:36,15.69913903,0.0002817,69.9969,316.7132,261.0388,99.0489,-3.3937e-06,-6.2e-06,0.0,0 STARLINK-5841,1 56493U 23064AX  23233.36014819 -.00000620  00000-0 -33937-5 0  9997,2 56493  69.9969 316.7132 0002817 261.0388  99.0489 15.69913903 16480,6737.28,91.725,361.043,357.247,0.0
56493.0,STARLINK-5841,PAYLOAD,2023-08-22 04:31:22,15.69932264,0.0003487,69.9977,314.3844,265.4913,94.5884,1.8338e-05,1.993e-05,0.0,0 STARLINK-5841,1 56493U 23064AX  23234.18845116  .00001993  00000-0  18338-4 0  9999,2 56493  69.9977 314.3844 0003487 265.4913  94.5884 15.69932264 16614,6737.228,91.724,361.442,356.744,0.0
56493.0,STARLINK-5841,PAYLOAD,2023-08-22 09:06:38,15.69917977,0.0002988,69.9986,313.8486,274.2318,85.8536,5.4017e-06,4.37e-06,0.0,0 STARLINK-5841,1 56493U 23064AX  23234.37961294  .00000437  00000-0  54017-5 0  9993,2 56493  69.9986 313.8486 0002988 274.2318  85.8536 15.69917977 16646,6737.269,91.725,361.147,357.121,0.0
56493.0,STARLINK-5841,PAYLOAD,2023-08-23 12:38:10,15.69916103,0.0003214,69.9989,310.6258,267.8806,92.2022,3.5178e-05,4.018e-05,0.0,0 STARLINK-5841,1 56493U 23064AX  23235.52651367  .00004018  00000-0  35178-4 0  9993,2 56493  69.9989 310.6258 0003214 267.8806  92.2022 15.69916103 16826,6737.274,91.725,361.304,356.974,0.0
56493.0,STARLINK-5841,PAYLOAD,2023-08-24 08:30:57,15.69909706,0.0002503,70.0006,308.298,260.8959,99.1953,1.1002e-05,1.11e-05,0.0,0 STARLINK-5841,1 56493U 23064AX  23236.35483628  .00001110  00000-0  11002-4 0  9998,2 56493  70.0006 308.2980 0002503 260.8959  99.1953 15.69909706 16602,6737.292,91.725,360.844,357.471,0.0
56493.0,STARLINK-5841,PAYLOAD,2023-08-25 07:27:13,15.69924952,0.0002447,70.0001,305.6116,248.9843,111.1091,1.8849e-05,2.055e-05,0.0,0 STARLINK-5841,1 56493U 23064AX  23237.31057503  .00002055  00000-0  18849-4 0  9999,2 56493  70.0001 305.6116 0002447 248.9843 111.1091 15.69924952 17109,6737.249,91.724,360.762,357.465,0.0
56493.0,STARLINK-5841,PAYLOAD,2023-08-25 13:34:14,15.69923892,0.0002496,69.9996,304.8924,261.3183,98.773,1.8472e-05,2.009e-05,0.0,0 STARLINK-5841,1 56493U 23064AX  23237.56544321  .00002009  00000-0  18472-4 0  9996,2 56493  69.9996 304.8924 0002496 261.3183  98.7730 15.69923892 16793,6737.252,91.724,360.798,357.435,0.0
56493.0,STARLINK-5841,PAYLOAD,2023-08-25 16:37:45,15.69921471,0.0002965,69.9989,304.5334,285.7869,74.2999,4.9187e-06,3.79e-06,0.0,0 STARLINK-5841,1 56493U 23064AX  23237.69288205  .00000379  00000-0  49187-5 0  9992,2 56493  69.9989 304.5334 0002965 285.7869  74.2999 15.69921471 17168,6737.259,91.724,361.121,357.126,0.0
56493.0,STARLINK-5841,PAYLOAD,2023-08-26 07:55:15,15.69930575,0.0002993,69.9984,302.7411,274.7109,85.3745,6.1341e-06,5.25e-06,0.0,0 STARLINK-5841,1 56493U 23064AX  23238.33004012  .00000525  00000-0  61341-5 0  9995,2 56493  69.9984 302.7411 0002993 274.7109  85.3745 15.69930575 17263,6737.233,91.724,361.114,357.081,0.0
56493.0,STARLINK-5841,PAYLOAD,2023-08-27 03:48:02,15.69923289,0.0003355,69.9978,300.4127,273.8882,86.193,7.6947e-06,7.12e-06,0.0,0 STARLINK-5841,1 56493U 23064AX  23239.15836316  .00000712  00000-0  76947-5 0  9992,2 56493  69.9978 300.4127 0003355 273.8882  86.1930 15.69923289 17399,6737.253,91.724,361.379,356.858,0.0
56493.0,STARLINK-5841,PAYLOAD,2023-08-27 05:19:47,15.69924042,0.0003062,69.9986,300.2338,270.9638,89.1207,8.1228e-06,7.64e-06,0.0,0 STARLINK-5841,1 56493U 23064AX  23239.22207909  .00000764  00000-0  81228-5 0  9995,2 56493  69.9986 300.2338 0003062 270.9638  89.1207 15.69924042 17053,6737.251,91.724,361.179,357.053,0.0
56493.0,STARLINK-5841,PAYLOAD,2023-08-27 12:58:33,15.69923361,0.000294,69.9986,299.3381,269.3368,90.7491,7.0769e-06,6.38e-06,0.0,0 STARLINK-5841,1 56493U 23064AX  23239.54066328  .00000638  00000-0  70769-5 0  9996,2 56493  69.9986 299.3381 0002940 269.3368  90.7491 15.69923361 17107,6737.253,91.724,361.099,357.138,0.0
56493.0,STARLINK-5841,PAYLOAD,2023-08-28 10:23:04,15.69927204,0.0003558,69.9951,296.8265,272.3559,87.7229,2.3011e-06,6.4e-07,0.0,0 STARLINK-5841,1 56493U 23064AX  23240.43269464  .00000064  00000-0  23011-5 0  9993,2 56493  69.9951 296.8265 0003558 272.3559  87.7229 15.69927204 17592,6737.242,91.724,361.504,356.71,0.0
56493.0,STARLINK-5841,PAYLOAD,2023-08-28 13:26:35,15.69926328,0.0003036,69.9973,296.4693,265.4824,94.6025,9.4212e-07,-9.9e-07,0.0,0 STARLINK-5841,1 56493U 23064AX  23240.56012932 -.00000099  00000-0  94212-6 0  9994,2 56493  69.9973 296.4693 0003036 265.4824  94.6025 15.69926328 17267,6737.245,91.724,361.155,357.064,0.0
56493.0,STARLINK-5841,PAYLOAD,2023-08-29 13:54:37,15.69924358,0.0003467,69.9987,293.6059,268.4584,91.6215,7.3292e-06,6.69e-06,0.0,0 STARLINK-5841,1 56493U 23064AX  23241.57959776  .00000669  00000-0  73292-5 0  9998,2 56493  69.9987 293.6059 0003467 268.4584  91.6215 15.69924358 17776,6737.25,91.724,361.451,356.78,0.0
56493.0,STARLINK-5841,PAYLOAD,2023-08-30 20:30:27,15.69317788,0.0004649,69.9992,290.0266,233.3137,126.7632,-0.00063429,-0.00073967,0.0,0 STARLINK-5841,1 56493U 23064AX  23242.85448411 -.00073967  00000-0 -63429-3 0  9991,2 56493  69.9992 290.0266 0004649 233.3137 126.7632 15.69317788 17621,6738.986,91.76,363.984,357.718,0.0
